{"type": "FeatureCollection", "features": [ {"type": "Feature", "properties": {"norad_id": 67001, "name": "2025-292J", "group": "last-30-days", "lat": 34.93055904490757, "lon": -105.73888613809501, "alt_km": 550.7882186684719, "timestamp": "2025-12-22T09:53:36.146874+00:00", "meta": {"OBJECT_NAME": "2025-292J", "OBJECT_ID": "2025-292J", "EPOCH": "2025-12-22T04:27:44.487648", "MEAN_MOTION": 15.04397546, "ECCENTRICITY": 0.0014631, "INCLINATION": 97.6548, "RA_OF_ASC_NODE": 68.6472, "ARG_OF_PERICENTER": 233.7787, "MEAN_ANOMALY": 126.2087, "EPHEMERIS_TYPE": 0, "CLASSIFICATION_TYPE": "U", "NORAD_CAT_ID": 67001, "ELEMENT_SET_NO": 999, "REV_AT_EPOCH": 181, "BSTAR": 0.00039621, "MEAN_MOTION_DOT": 5.484e-05, "MEAN_MOTION_DDOT": 0}, "tle": {"line1": "1 67001U 25292J   25356.18593157  .00005484  00000+0  39621-3 0  9998", "line2": "2 67001  97.6548  68.6472 0014631 233.7787 126.2087 15.04397546  1810"}}, "geometry": {"type": "Point", "coordinates": [-105.73888613809501, 34.93055904490757]}}, {"type": "Feature", "properties": {"norad_id": 67002, "name": "ZK-1A R/B", "group": "last-30-days", "lat": -57.93155341348084, "lon": -122.52191141248325, "alt_km": 402.7088280691296, "timestamp": "2025-12-22T09:53:36.146886+00:00", "meta": {"OBJECT_NAME": "ZK-1A R/B", "OBJECT_ID": "2025-292K", "EPOCH": "2025-12-22T04:13:50.835648", "MEAN_MOTION": 15.57537546, "ECCENTRICITY": 0.0209293, "INCLINATION": 97.7207, "RA_OF_ASC_NODE": 69.7284, "ARG_OF_PERICENTER": 331.1889, "MEAN_ANOMALY": 27.7932, "EPHEMERIS_TYPE": 0, "CLASSIFICATION_TYPE": "U", "NORAD_CAT_ID": 67002, "ELEMENT_SET_NO": 999, "REV_AT_EPOCH": 186, "BSTAR": 0.00083309, "MEAN_MOTION_DOT": 0.00176431, "MEAN_MOTION_DDOT": 1.0434e-05}, "tle": {"line1": "1 67002U 25292K   25356.17628282  .00176431  10434-4  83309-3 0  9996", "line2": "2 67002  97.7207  69.7284 0209293 331.1889  27.7932 15.57537546  1866"}}, "geometry": {"type": "Point", "coordinates": [-122.52191141248325, -57.93155341348084]}}, {"type": "Feature", "properties": {"norad_id": 67003, "name": "STARLINK-35660", "group": "last-30-days", "lat": -21.94616780230801, "lon": -72.71429457497574, "alt_km": 312.3883918136935, "timestamp": "2025-12-22T09:53:36.146896+00:00", "meta": {"OBJECT_NAME": "STARLINK-35660", "OBJECT_ID": "2025-293A", "EPOCH": "2025-12-22T04:00:01.998720", "MEAN_MOTION": 15.88822311, "ECCENTRICITY": 0.0003108, "INCLINATION": 69.9941, "RA_OF_ASC_NODE": 296.437, "ARG_OF_PERICENTER": 276.5656, "MEAN_ANOMALY": 96.5723, "EPHEMERIS_TYPE": 0, "CLASSIFICATION_TYPE": "U", "NORAD_CAT_ID": 67003, "ELEMENT_SET_NO": 999, "REV_AT_EPOCH": 169, "BSTAR": -0.0075298, "MEAN_MOTION_DOT": -0.01836659, "MEAN_MOTION_DDOT": 0}, "tle": {"line1": "1 67003U 25293A   25356.16668980 -.01836659  00000+0 -75298-2 0  9994", "line2": "2 67003  69.9941 296.4370 0003108 276.5656  96.5723 15.88822311  1693"}}, "geometry": {"type": "Point", "coordinates": [-72.71429457497574, -21.94616780230801]}}, {"type": "Feature", "properties": {"norad_id": 67004, "name": "STARLINK-35913", "group": "last-30-days", "lat": -19.88513975304472, "lon": -71.84773034824399, "alt_km": 312.2098061084971, "timestamp": "2025-12-22T09:53:36.146919+00:00", "meta": {"OBJECT_NAME": "STARLINK-35913", "OBJECT_ID": "2025-293B", "EPOCH": "2025-12-22T04:00:01.998720", "MEAN_MOTION": 15.88687622, "ECCENTRICITY": 0.0004052, "INCLINATION": 69.994, "RA_OF_ASC_NODE": 296.4343, "ARG_OF_PERICENTER": 270.6398, "MEAN_ANOMALY": 104.7566, "EPHEMERIS_TYPE": 0, "CLASSIFICATION_TYPE": "U", "NORAD_CAT_ID": 67004, "ELEMENT_SET_NO": 999, "REV_AT_EPOCH": 169, "BSTAR": -0.0064922, "MEAN_MOTION_DOT": -0.01606824, "MEAN_MOTION_DDOT": 0}, "tle": {"line1": "1 67004U 25293B   25356.16668980 -.01606824  00000+0 -64922-2 0  9996", "line2": "2 67004  69.9940 296.4343 0004052 270.6398 104.7566 15.88687622  1691"}}, "geometry": {"type": "Point", "coordinates": [-71.84773034824399, -19.88513975304472]}}, {"type": "Feature", "properties": {"norad_id": 67005, "name": "STARLINK-36148", "group": "last-30-days", "lat": -17.577463836495745, "lon": -70.90511981558407, "alt_km": 312.46448913360655, "timestamp": "2025-12-22T09:53:36.146933+00:00", "meta": {"OBJECT_NAME": "STARLINK-36148", "OBJECT_ID": "2025-293C", "EPOCH": "2025-12-22T04:00:01.998720", "MEAN_MOTION": 15.88794888, "ECCENTRICITY": 0.000365, "INCLINATION": 69.9943, "RA_OF_ASC_NODE": 296.4319, "ARG_OF_PERICENTER": 266.7506, "MEAN_ANOMALY": 111.093, "EPHEMERIS_TYPE": 0, "CLASSIFICATION_TYPE": "U", "NORAD_CAT_ID": 67005, "ELEMENT_SET_NO": 999, "REV_AT_EPOCH": 169, "BSTAR": -0.0075053, "MEAN_MOTION_DOT": -0.01830162, "MEAN_MOTION_DDOT": 0}, "tle": {"line1": "1 67005U 25293C   25356.16668980 -.01830162  00000+0 -75053-2 0  9998", "line2": "2 67005  69.9943 296.4319 0003650 266.7506 111.0930 15.88794888  1697"}}, "geometry": {"type": "Point", "coordinates": [-70.90511981558407, -17.577463836495745]}}, {"type": "Feature", "properties": {"norad_id": 67006, "name": "STARLINK-36156", "group": "last-30-days", "lat": -12.328670972896209, "lon": -68.85209818568026, "alt_km": 312.33373408441184, "timestamp": "2025-12-22T09:53:36.146945+00:00", "meta": {"OBJECT_NAME": "STARLINK-36156", "OBJECT_ID": "2025-293D", "EPOCH": "2025-12-22T04:00:01.998720", "MEAN_MOTION": 15.88692459, "ECCENTRICITY": 0.000467, "INCLINATION": 69.9941, "RA_OF_ASC_NODE": 296.4244, "ARG_OF_PERICENTER": 265.0517, "MEAN_ANOMALY": 118.4677, "EPHEMERIS_TYPE": 0, "CLASSIFICATION_TYPE": "U", "NORAD_CAT_ID": 67006, "ELEMENT_SET_NO": 999, "REV_AT_EPOCH": 169, "BSTAR": -0.0072498, "MEAN_MOTION_DOT": -0.01770133, "MEAN_MOTION_DDOT": 0}, "tle": {"line1": "1 67006U 25293D   25356.16668980 -.01770133  00000+0 -72498-2 0  9990", "line2": "2 67006  69.9941 296.4244 0004670 265.0517 118.4677 15.88692459  1690"}}, "geometry": {"type": "Point", "coordinates": [-68.85209818568026, -12.328670972896209]}}, {"type": "Feature", "properties": {"norad_id": 67007, "name": "STARLINK-36123", "group": "last-30-days", "lat": -14.723951052232199, "lon": -69.77616529863377, "alt_km": 312.4602891262175, "timestamp": "2025-12-22T09:53:36.146955+00:00", "meta": {"OBJECT_NAME": "STARLINK-36123", "OBJECT_ID": "2025-293E", "EPOCH": "2025-12-22T04:00:01.998720", "MEAN_MOTION": 15.8871331, "ECCENTRICITY": 0.0004332, "INCLINATION": 69.9939, "RA_OF_ASC_NODE": 296.4274, "ARG_OF_PERICENTER": 264.4645, "MEAN_ANOMALY": 116.4816, "EPHEMERIS_TYPE": 0, "CLASSIFICATION_TYPE": "U", "NORAD_CAT_ID": 67007, "ELEMENT_SET_NO": 999, "REV_AT_EPOCH": 169, "BSTAR": -0.0072604, "MEAN_MOTION_DOT": -0.01773482, "MEAN_MOTION_DDOT": 0}, "tle": {"line1": "1 67007U 25293E   25356.16668980 -.01773482  00000+0 -72604-2 0  9990", "line2": "2 67007  69.9939 296.4274 0004332 264.4645 116.4816 15.88713310  1694"}}, "geometry": {"type": "Point", "coordinates": [-69.77616529863377, -14.723951052232199]}}, {"type": "Feature", "properties": {"norad_id": 67008, "name": "STARLINK-36163", "group": "last-30-days", "lat": -9.255665533712676, "lon": -67.69237894586668, "alt_km": 311.6340210343715, "timestamp": "2025-12-22T09:53:36.146964+00:00", "meta": {"OBJECT_NAME": "STARLINK-36163", "OBJECT_ID": "2025-293F", "EPOCH": "2025-12-22T04:00:01.998720", "MEAN_MOTION": 15.88604332, "ECCENTRICITY": 0.0004194, "INCLINATION": 69.9939, "RA_OF_ASC_NODE": 296.4206, "ARG_OF_PERICENTER": 279.2149, "MEAN_ANOMALY": 107.6506, "EPHEMERIS_TYPE": 0, "CLASSIFICATION_TYPE": "U", "NORAD_CAT_ID": 67008, "ELEMENT_SET_NO": 999, "REV_AT_EPOCH": 169, "BSTAR": -0.0069656, "MEAN_MOTION_DOT": -0.01702652, "MEAN_MOTION_DDOT": 0}, "tle": {"line1": "1 67008U 25293F   25356.16668980 -.01702652  00000+0 -69656-2 0  9995", "line2": "2 67008  69.9939 296.4206 0004194 279.2149 107.6506 15.88604332  1690"}}, "geometry": {"type": "Point", "coordinates": [-67.69237894586668, -9.255665533712676]}}, {"type": "Feature", "properties": {"norad_id": 67009, "name": "STARLINK-36118", "group": "last-30-days", "lat": -6.688124639675472, "lon": -66.74036746821663, "alt_km": 311.3651839709164, "timestamp": "2025-12-22T09:53:36.146974+00:00", "meta": {"OBJECT_NAME": "STARLINK-36118", "OBJECT_ID": "2025-293G", "EPOCH": "2025-12-22T04:00:01.998720", "MEAN_MOTION": 15.88573608, "ECCENTRICITY": 0.0003828, "INCLINATION": 69.9939, "RA_OF_ASC_NODE": 296.4173, "ARG_OF_PERICENTER": 284.8943, "MEAN_ANOMALY": 104.7382, "EPHEMERIS_TYPE": 0, "CLASSIFICATION_TYPE": "U", "NORAD_CAT_ID": 67009, "ELEMENT_SET_NO": 999, "REV_AT_EPOCH": 163, "BSTAR": -0.0069498, "MEAN_MOTION_DOT": -0.01696519, "MEAN_MOTION_DDOT": 0}, "tle": {"line1": "1 67009U 25293G   25356.16668980 -.01696519  00000+0 -69498-2 0  9994", "line2": "2 67009  69.9939 296.4173 0003828 284.8943 104.7382 15.88573608  1636"}}, "geometry": {"type": "Point", "coordinates": [-66.74036746821663, -6.688124639675472]}}, {"type": "Feature", "properties": {"norad_id": 67010, "name": "STARLINK-36189", "group": "last-30-days", "lat": -2.102055314833102, "lon": -65.06362149707154, "alt_km": 311.87409092516737, "timestamp": "2025-12-22T09:53:36.146984+00:00", "meta": {"OBJECT_NAME": "STARLINK-36189", "OBJECT_ID": "2025-293H", "EPOCH": "2025-12-22T04:00:01.998720", "MEAN_MOTION": 15.88463743, "ECCENTRICITY": 0.0003695, "INCLINATION": 69.9938, "RA_OF_ASC_NODE": 296.4115, "ARG_OF_PERICENTER": 266.8286, "MEAN_ANOMALY": 127.7425, "EPHEMERIS_TYPE": 0, "CLASSIFICATION_TYPE": "U", "NORAD_CAT_ID": 67010, "ELEMENT_SET_NO": 999, "REV_AT_EPOCH": 169, "BSTAR": -0.006314, "MEAN_MOTION_DOT": -0.01520014, "MEAN_MOTION_DDOT": 0}, "tle": {"line1": "1 67010U 25293H   25356.16668980 -.01520014  00000+0 -63140-2 0  9990", "line2": "2 67010  69.9938 296.4115 0003695 266.8286 127.7425 15.88463743  1692"}}, "geometry": {"type": "Point", "coordinates": [-65.06362149707154, -2.102055314833102]}}]}